[{"OBJECT_NAME":"ORBCOMM FM32","OBJECT_ID":"1999-065C","EPOCH":"2026-03-09T01:02:29.080032","MEAN_MOTION":14.3696516,"ECCENTRICITY":0.00057226,"INCLINATION":45.0154,"RA_OF_ASC_NODE":287.2018,"ARG_OF_PERICENTER":281.4865,"MEAN_ANOMALY":78.534,"EPHEMERIS_TYPE":0,"CLASSIFICATION_TYPE":"U","NORAD_CAT_ID":25982,"ELEMENT_SET_NO":999,"REV_AT_EPOCH":37268,"BSTAR":0.00040930249,"MEAN_MOTION_DOT":1.082e-5,"MEAN_MOTION_DDOT":0},{"OBJECT_NAME":"TITAN 3C TRANSTAGE DEB","OBJECT_ID":"1965-082ES","EPOCH":"2026-03-09T02:47:41.743104","MEAN_MOTION":14.49038357,"ECCENTRICITY":0.00671757,"INCLINATION":32.1276,"RA_OF_ASC_NODE":25.4338,"ARG_OF_PERICENTER":205.3447,"MEAN_ANOMALY":154.3891,"EPHEMERIS_TYPE":0,"CLASSIFICATION_TYPE":"U","NORAD_CAT_ID":1859,"ELEMENT_SET_NO":999,"REV_AT_EPOCH":17254,"BSTAR":0.00010843699,"MEAN_MOTION_DOT":4.67e-6,"MEAN_MOTION_DDOT":0}]
